OBJECT B                
1 51825U 22019B   25059.83023084  .00033830  00000+0  10013-2 0  9997
2 51825  97.3964 135.7979 0011803  55.7064 304.5294 15.34748976166411
